STARLINK-1559           
1 46077U 20055BC  26068.23360559  .00042685  00000+0  14779-2 0  9995
2 46077  53.0254  76.0659 0004229  33.9710 326.1559 15.29461733309518
STARLINK-34634          
1 65079U 25167B   26068.29447529  .00038113  00000+0  12924-2 0  9997
2 65079  53.1605  26.1097 0001046  89.7103 270.4017 15.30199395 33454
